GLOBALSTAR M075         
1 37192U 10054E   25331.19555139 -.00000091  00000+0  71683-4 0  9993
2 37192  51.9968  45.2107 0000575 117.1972 267.5337 12.62269927696433
GLOBALSTAR M073         
1 37193U 10054F   25331.04136661 -.00000083  00000+0  11868-3 0  9992
2 37193  52.0076 319.6277 0000319  20.0357  21.8414 12.62264645698405
GLOBALSTAR M083         
1 37739U 11033A   25330.98243795 -.00000071  00000+0  18246-3 0  9999
2 37739  51.9865 268.3119 0000539  43.4404  32.4320 12.62264901667412
GLOBALSTAR M088         
1 37740U 11033B   25331.05504105 -.00000088  00000+0  86270-4 0  9996
2 37740  52.0185 174.0293 0001145  90.1314  74.8531 12.62270666662964
GLOBALSTAR M091         
1 37741U 11033C   25330.65360972 -.00000097  00000+0  38866-4 0  9992
2 37741  51.9969 138.5149 0000995 108.8745 330.7097 12.62262112663706
GLOBALSTAR M085         
1 37742U 11033D   25330.62555172 -.00000100  00000+0  18768-4 0  9992
2 37742  52.0124  89.7135 0000774 131.3464 241.2063 12.62266806664218
GLOBALSTAR M081         
1 37743U 11033E   25330.67225591 -.00000101  00000+0  14652-4 0  9996
2 37743  51.9955  92.2373 0000628 116.7957 348.4263 12.62270542664364
GLOBALSTAR M089         
1 37744U 11033F   25330.64160403 -.00000096  00000+0  44311-4 0  9992
2 37744  51.9949  46.5278 0000605  94.6950  52.2467 12.62272521665205
